{
  "type": "FeatureCollection",
  "features": [
    {
      "type": "Feature",
      "properties": {
        "norad_id": 28890,
        "name": "BEIJING 1",
        "group": "dmc",
        "lat": 62.46145251394087,
        "lon": -40.67150160584233,
        "alt_km": 665.1019756195556,
        "timestamp": "2025-12-21T14:40:47.577339+00:00",
        "meta_object_name": "BEIJING 1",
        "meta_object_id": "2005-043A",
        "meta_epoch": "2025-12-21T07:35:12.852672",
        "meta_mean_motion": 14.63372515,
        "meta_eccentricity": 0.00157347,
        "meta_inclination": 98.266,
        "meta_ra_of_asc_node": 122.8435,
        "meta_arg_of_pericenter": 116.0783,
        "meta_mean_anomaly": 244.204,
        "meta_ephemeris_type": 0,
        "meta_classification_type": "U",
        "meta_norad_cat_id": 28890,
        "meta_element_set_no": 999,
        "meta_rev_at_epoch": 7463,
        "meta_bstar": 9.870136e-06,
        "meta_mean_motion_dot": 2e-08,
        "meta_mean_motion_ddot": 0,
        "tle_line1": "1 28890U 05043A   25355.31612098  .00000002  00000+0  98701-5 0  9990",
        "tle_line2": "2 28890  98.2660 122.8435 0015734 116.0783 244.2040 14.63372515 74634"
      },
      "geometry": {
        "type": "Point",
        "coordinates": [
          -40.67150160584233,
          62.46145251394087
        ]
      }
    },
    {
      "type": "Feature",
      "properties": {
        "norad_id": 33320,
        "name": "HUANJING 1A (HJ-1A)",
        "group": "dmc",
        "lat": 61.494148888729605,
        "lon": -30.79629443668535,
        "alt_km": 604.9540378627235,
        "timestamp": "2025-12-21T14:40:47.577363+00:00",
        "meta_object_name": "HUANJING 1A (HJ-1A)",
        "meta_object_id": "2008-041A",
        "meta_epoch": "2025-12-21T06:18:21.256128",
        "meta_mean_motion": 14.83419593,
        "meta_eccentricity": 0.00195233,
        "meta_inclination": 97.6537,
        "meta_ra_of_asc_node": 343.2054,
        "meta_arg_of_pericenter": 7.4904,
        "meta_mean_anomaly": 352.6599,
        "meta_ephemeris_type": 0,
        "meta_classification_type": "U",
        "meta_norad_cat_id": 33320,
        "meta_element_set_no": 999,
        "meta_rev_at_epoch": 93202,
        "meta_bstar": 0.00019320497,
        "meta_mean_motion_dot": 1.54e-05,
        "meta_mean_motion_ddot": 0,
        "tle_line1": "1 33320U 08041A   25355.26274602  .00001540  00000+0  19320-3 0  9990",
        "tle_line2": "2 33320  97.6537 343.2054 0019523   7.4904 352.6599 14.83419593932027"
      },
      "geometry": {
        "type": "Point",
        "coordinates": [
          -30.79629443668535,
          61.494148888729605
        ]
      }
    },
    {
      "type": "Feature",
      "properties": {
        "norad_id": 33321,
        "name": "HUANJING 1B (HJ-1B)",
        "group": "dmc",
        "lat": -80.77296094087009,
        "lon": 111.49871351309247,
        "alt_km": 648.9047039194938,
        "timestamp": "2025-12-21T14:40:47.577378+00:00",
        "meta_object_name": "HUANJING 1B (HJ-1B)",
        "meta_object_id": "2008-041B",
        "meta_epoch": "2025-12-21T07:00:41.133600",
        "meta_mean_motion": 14.82844154,
        "meta_eccentricity": 0.0038017,
        "meta_inclination": 97.6396,
        "meta_ra_of_asc_node": 346.9082,
        "meta_arg_of_pericenter": 48.7476,
        "meta_mean_anomaly": 311.7003,
        "meta_ephemeris_type": 0,
        "meta_classification_type": "U",
        "meta_norad_cat_id": 33321,
        "meta_element_set_no": 999,
        "meta_rev_at_epoch": 93204,
        "meta_bstar": 0.00018912012,
        "meta_mean_motion_dot": 1.499e-05,
        "meta_mean_motion_ddot": 0,
        "tle_line1": "1 33321U 08041B   25355.29214275  .00001499  00000+0  18912-3 0  9993",
        "tle_line2": "2 33321  97.6396 346.9082 0038017  48.7476 311.7003 14.82844154932045"
      },
      "geometry": {
        "type": "Point",
        "coordinates": [
          111.49871351309247,
          -80.77296094087009
        ]
      }
    },
    {
      "type": "Feature",
      "properties": {
        "norad_id": 33446,
        "name": "YAOGAN-4",
        "group": "dmc",
        "lat": 7.428463499369909,
        "lon": 106.6639813451989,
        "alt_km": 627.3957490179037,
        "timestamp": "2025-12-21T14:40:47.577390+00:00",
        "meta_object_name": "YAOGAN-4",
        "meta_object_id": "2008-061A",
        "meta_epoch": "2025-12-20T07:07:49.061568",
        "meta_mean_motion": 14.82702731,
        "meta_eccentricity": 0.00131175,
        "meta_inclination": 97.9192,
        "meta_ra_of_asc_node": 284.3224,
        "meta_arg_of_pericenter": 296.7402,
        "meta_mean_anomaly": 63.2469,
        "meta_ephemeris_type": 0,
        "meta_classification_type": "U",
        "meta_norad_cat_id": 33446,
        "meta_element_set_no": 999,
        "meta_rev_at_epoch": 91915,
        "meta_bstar": 0.000123707,
        "meta_mean_motion_dot": 9.46e-06,
        "meta_mean_motion_ddot": 0,
        "tle_line1": "1 33446U 08061A   25354.29709562  .00000946  00000+0  12371-3 0  9999",
        "tle_line2": "2 33446  97.9192 284.3224 0013117 296.7402  63.2469 14.82702731919157"
      },
      "geometry": {
        "type": "Point",
        "coordinates": [
          106.6639813451989,
          7.428463499369909
        ]
      }
    },
    {
      "type": "Feature",
      "properties": {
        "norad_id": 35681,
        "name": "DEIMOS-1",
        "group": "dmc",
        "lat": 54.63433349606458,
        "lon": 144.79118879046703,
        "alt_km": 638.3104337106124,
        "timestamp": "2025-12-21T14:40:47.577401+00:00",
        "meta_object_name": "DEIMOS-1",
        "meta_object_id": "2009-041A",
        "meta_epoch": "2025-12-21T06:17:20.510016",
        "meta_mean_motion": 14.7496328,
        "meta_eccentricity": 0.00025927,
        "meta_inclination": 97.7146,
        "meta_ra_of_asc_node": 155.4684,
        "meta_arg_of_pericenter": 66.3377,
        "meta_mean_anomaly": 293.8105,
        "meta_ephemeris_type": 0,
        "meta_classification_type": "U",
        "meta_norad_cat_id": 35681,
        "meta_element_set_no": 999,
        "meta_rev_at_epoch": 88065,
        "meta_bstar": 3.8588828e-05,
        "meta_mean_motion_dot": 2.12e-06,
        "meta_mean_motion_ddot": 0,
        "tle_line1": "1 35681U 09041A   25355.26204294  .00000212  00000+0  38589-4 0  9997",
        "tle_line2": "2 35681  97.7146 155.4684 0002592  66.3377 293.8105 14.74963280880651"
      },
      "geometry": {
        "type": "Point",
        "coordinates": [
          144.79118879046703,
          54.63433349606458
        ]
      }
    },
    {
      "type": "Feature",
      "properties": {
        "norad_id": 35683,
        "name": "UK-DMC 2",
        "group": "dmc",
        "lat": 81.87623609136183,
        "lon": 25.577003122668664,
        "alt_km": 634.6003950628938,
        "timestamp": "2025-12-21T14:40:47.577412+00:00",
        "meta_object_name": "UK-DMC 2",
        "meta_object_id": "2009-041C",
        "meta_epoch": "2025-12-21T07:45:17.180064",
        "meta_mean_motion": 14.75636428,
        "meta_eccentricity": 0.00015278,
        "meta_inclination": 97.8565,
        "meta_ra_of_asc_node": 129.9835,
        "meta_arg_of_pericenter": 93.4995,
        "meta_mean_anomaly": 266.639,
        "meta_ephemeris_type": 0,
        "meta_classification_type": "U",
        "meta_norad_cat_id": 35683,
        "meta_element_set_no": 999,
        "meta_rev_at_epoch": 88033,
        "meta_bstar": 2.5135058e-05,
        "meta_mean_motion_dot": 1.23e-06,
        "meta_mean_motion_ddot": 0,
        "tle_line1": "1 35683U 09041C   25355.32311551  .00000123  00000+0  25135-4 0  9995",
        "tle_line2": "2 35683  97.8565 129.9835 0001527  93.4995 266.6390 14.75636428880338"
      },
      "geometry": {
        "type": "Point",
        "coordinates": [
          25.577003122668664,
          81.87623609136183
        ]
      }
    },
    {
      "type": "Feature",
      "properties": {
        "norad_id": 40715,
        "name": "DMC3-FM1",
        "group": "dmc",
        "lat": 81.36089762287722,
        "lon": 104.95975102863369,
        "alt_km": 607.5742154603358,
        "timestamp": "2025-12-21T14:40:47.577423+00:00",
        "meta_object_name": "DMC3-FM1",
        "meta_object_id": "2015-032A",
        "meta_epoch": "2025-12-21T06:10:29.792064",
        "meta_mean_motion": 14.85453263,
        "meta_eccentricity": 0.00041505,
        "meta_inclination": 97.6688,
        "meta_ra_of_asc_node": 222.1389,
        "meta_arg_of_pericenter": 286.181,
        "meta_mean_anomaly": 73.8948,
        "meta_ephemeris_type": 0,
        "meta_classification_type": "U",
        "meta_norad_cat_id": 40715,
        "meta_element_set_no": 999,
        "meta_rev_at_epoch": 56349,
        "meta_bstar": 9.1314663e-05,
        "meta_mean_motion_dot": 7.36e-06,
        "meta_mean_motion_ddot": 0,
        "tle_line1": "1 40715U 15032A   25355.25728926  .00000736  00000+0  91315-4 0  9997",
        "tle_line2": "2 40715  97.6688 222.1389 0004150 286.1810  73.8948 14.85453263563493"
      },
      "geometry": {
        "type": "Point",
        "coordinates": [
          104.95975102863369,
          81.36089762287722
        ]
      }
    },
    {
      "type": "Feature",
      "properties": {
        "norad_id": 40716,
        "name": "DMC3-FM2",
        "group": "dmc",
        "lat": -26.019615887443802,
        "lon": -132.2951176810597,
        "alt_km": 615.4066623551416,
        "timestamp": "2025-12-21T14:40:47.577434+00:00",
        "meta_object_name": "DMC3-FM2",
        "meta_object_id": "2015-032B",
        "meta_epoch": "2025-12-21T06:42:52.363872",
        "meta_mean_motion": 14.85457318,
        "meta_eccentricity": 0.00046847,
        "meta_inclination": 97.6748,
        "meta_ra_of_asc_node": 223.6106,
        "meta_arg_of_pericenter": 293.4736,
        "meta_mean_anomaly": 66.5987,
        "meta_ephemeris_type": 0,
        "meta_classification_type": "U",
        "meta_norad_cat_id": 40716,
        "meta_element_set_no": 999,
        "meta_rev_at_epoch": 56349,
        "meta_bstar": 0.00012015148,
        "meta_mean_motion_dot": 9.85e-06,
        "meta_mean_motion_ddot": 0,
        "tle_line1": "1 40716U 15032B   25355.27977273  .00000985  00000+0  12015-3 0  9996",
        "tle_line2": "2 40716  97.6748 223.6106 0004684 293.4736  66.5987 14.85457318563491"
      },
      "geometry": {
        "type": "Point",
        "coordinates": [
          -132.2951176810597,
          -26.019615887443802
        ]
      }
    },
    {
      "type": "Feature",
      "properties": {
        "norad_id": 40717,
        "name": "DMC3-FM3",
        "group": "dmc",
        "lat": -37.490096638148785,
        "lon": 39.628114852201264,
        "alt_km": 617.9635111047592,
        "timestamp": "2025-12-21T14:40:47.577445+00:00",
        "meta_object_name": "DMC3-FM3",
        "meta_object_id": "2015-032C",
        "meta_epoch": "2025-12-21T05:37:06.996864",
        "meta_mean_motion": 14.8543998,
        "meta_eccentricity": 0.00040997,
        "meta_inclination": 97.6803,
        "meta_ra_of_asc_node": 225.2053,
        "meta_arg_of_pericenter": 295.5927,
        "meta_mean_anomaly": 64.4865,
        "meta_ephemeris_type": 0,
        "meta_classification_type": "U",
        "meta_norad_cat_id": 40717,
        "meta_element_set_no": 999,
        "meta_rev_at_epoch": 56349,
        "meta_bstar": -7.181136e-06,
        "meta_mean_motion_dot": -1.13e-06,
        "meta_mean_motion_ddot": 0,
        "tle_line1": "1 40717U 15032C   25355.23410876 -.00000113  00000+0 -71811-5 0  9990",
        "tle_line2": "2 40717  97.6803 225.2053 0004099 295.5927  64.4865 14.85439980563495"
      },
      "geometry": {
        "type": "Point",
        "coordinates": [
          39.628114852201264,
          -37.490096638148785
        ]
      }
    }
  ]
}